NORAD_CAT_ID,OBJECT_NAME,OBJECT_TYPE,EPOCH,MEAN_MOTION,ECCENTRICITY,INCLINATION,RA_OF_ASC_NODE,ARG_OF_PERICENTER,MEAN_ANOMALY,BSTAR,MEAN_MOTION_DOT,MEAN_MOTION_DDOT,TLE_LINE0,TLE_LINE1,TLE_LINE2,SEMIMAJOR_AXIS,PERIOD,APOGEE,PERIGEE,DECAYED
53157.0,STARLINK-4093,PAYLOAD,2024-08-13 05:01:42,15.08835253,0.0001522,53.2156,218.5685,102.8928,257.2234,1.1274e-05,-1.09e-06,0.0,0 STARLINK-4093,1 53157U 22083AB  24226.20952463 -.00000109  00000-0  11274-4 0  9993,2 53157  53.2156 218.5685 0001522 102.8928 257.2234 15.08835253115417,6917.895,95.438,540.813,538.707,0.0
53157.0,STARLINK-4093,PAYLOAD,2024-08-13 06:37:06,15.08836422,0.00015,53.2159,218.2777,108.3831,251.7325,2.0721e-05,4.2e-07,0.0,0 STARLINK-4093,1 53157U 22083AB  24226.27576456  .00000042  00000-0  20721-4 0  9996,2 53157  53.2159 218.2777 0001500 108.3831 251.7325 15.08836422114798,6917.891,95.438,540.794,538.719,0.0
53157.0,STARLINK-4093,PAYLOAD,2024-08-13 16:09:24,15.08844739,0.0001439,53.2162,216.4893,96.8561,263.2595,0.00011948,1.614e-05,0.0,0 STARLINK-4093,1 53157U 22083AB  24226.67319986  .00001614  00000-0  11948-3 0  9999,2 53157  53.2162 216.4893 0001439  96.8561 263.2595 15.08844739115487,6917.866,95.437,540.726,538.735,0.0
53157.0,STARLINK-4093,PAYLOAD,2024-08-13 22:30:57,15.08838479,0.0001568,53.2171,215.3058,107.2944,252.8219,9.2263e-05,1.181e-05,0.0,0 STARLINK-4093,1 53157U 22083AB  24226.93816385  .00001181  00000-0  92263-4 0  9992,2 53157  53.2171 215.3058 0001568 107.2944 252.8219 15.08838479114898,6917.885,95.438,540.835,538.665,0.0
53157.0,STARLINK-4093,PAYLOAD,2024-08-14 04:52:30,15.08829315,0.0001437,53.2158,214.1119,106.5205,253.5945,-6.9848e-05,-1.399e-05,0.0,0 STARLINK-4093,1 53157U 22083AB  24227.20313039 -.00001399  00000-0 -69848-4 0  9997,2 53157  53.2158 214.1119 0001437 106.5205 253.5945 15.08829315115563,6917.913,95.438,540.772,538.784,0.0
53157.0,STARLINK-4093,PAYLOAD,2024-08-14 09:38:39,15.08832911,0.0001411,53.2156,213.22,105.4844,254.6304,-2.1851e-05,-6.36e-06,0.0,0 STARLINK-4093,1 53157U 22083AB  24227.40184890 -.00000636  00000-0 -21851-4 0  9995,2 53157  53.2156 213.2200 0001411 105.4844 254.6304 15.08832911114961,6917.902,95.438,540.743,538.791,0.0
53157.0,STARLINK-4093,PAYLOAD,2024-08-14 16:00:12,15.0883402,0.0001427,53.2157,212.0306,105.5204,254.5945,7.0712e-05,8.37e-06,0.0,0 STARLINK-4093,1 53157U 22083AB  24227.66680958  .00000837  00000-0  70712-4 0  9990,2 53157  53.2157 212.0306 0001427 105.5204 254.5945 15.08834020115003,6917.899,95.438,540.751,538.776,0.0
53157.0,STARLINK-4093,PAYLOAD,2024-08-15 04:43:17,15.08837825,0.0001382,53.215,209.6516,105.973,254.1414,0.00038499,5.844e-05,0.0,0 STARLINK-4093,1 53157U 22083AB  24228.19673240  .00005844  00000-0  38499-3 0  9993,2 53157  53.2150 209.6516 0001382 105.9730 254.1414 15.08837825115710,6917.887,95.438,540.708,538.796,0.0
53157.0,STARLINK-4093,PAYLOAD,2024-08-15 06:18:40,15.08839275,0.0001359,53.2148,209.3541,105.3497,254.7645,0.00045021,6.884e-05,0.0,0 STARLINK-4093,1 53157U 22083AB  24228.26297255  .00006884  00000-0  45021-3 0  9993,2 53157  53.2148 209.3541 0001359 105.3497 254.7645 15.08839275115094,6917.883,95.438,540.688,538.807,0.0
53157.0,STARLINK-4093,PAYLOAD,2024-08-15 15:50:59,15.0884863,0.0001327,53.2145,207.5697,98.8746,261.2396,0.00054078,8.331e-05,0.0,0 STARLINK-4093,1 53157U 22083AB  24228.66041063  .00008331  00000-0  54078-3 0  9992,2 53157  53.2145 207.5697 0001327  98.8746 261.2396 15.08848630115159,6917.854,95.437,540.637,538.801,0.0
53157.0,STARLINK-4093,PAYLOAD,2024-08-16 06:09:27,15.08843168,0.0001409,53.2143,204.8921,98.8909,261.2243,0.00024539,3.62e-05,0.0,0 STARLINK-4093,1 53157U 22083AB  24229.25657175  .00003620  00000-0  24539-3 0  9990,2 53157  53.2143 204.8921 0001409  98.8909 261.2243 15.08843168115870,6917.871,95.437,540.71,538.761,0.0
53157.0,STARLINK-4093,PAYLOAD,2024-08-17 07:35:37,15.08844584,0.0001355,53.2142,200.1348,103.7609,256.3534,0.00015576,2.192e-05,0.0,0 STARLINK-4093,1 53157U 22083AB  24230.31641066  .00002192  00000-0  15576-3 0  9995,2 53157  53.2142 200.1348 0001355 103.7609 256.3534 15.08844584116034,6917.866,95.437,540.669,538.794,0.0
53157.0,STARLINK-4093,PAYLOAD,2024-08-18 04:15:38,15.08846395,0.0001387,53.2153,196.2683,96.4678,263.6472,0.00014549,2.029e-05,0.0,0 STARLINK-4093,1 53157U 22083AB  24231.17752953  .00002029  00000-0  14549-3 0  9996,2 53157  53.2153 196.2683 0001387  96.4678 263.6472 15.08846395115530,6917.861,95.437,540.685,538.766,0.0
53157.0,STARLINK-4093,PAYLOAD,2024-08-18 21:44:53,15.08840788,0.0001469,53.2158,192.998,97.5735,262.5423,9.4729e-05,1.22e-05,0.0,0 STARLINK-4093,1 53157U 22083AB  24231.90617196  .00001220  00000-0  94729-4 0  9997,2 53157  53.2158 192.9980 0001469  97.5735 262.5423 15.08840788115641,6917.878,95.438,540.759,538.727,0.0
53157.0,STARLINK-4093,PAYLOAD,2024-08-19 04:06:26,15.08835755,0.0001354,53.2163,191.8064,84.1902,275.9245,2.2181e-05,6.5e-07,0.0,0 STARLINK-4093,1 53157U 22083AB  24232.17113613  .00000065  00000-0  22181-4 0  9991,2 53157  53.2163 191.8064 0001354  84.1902 275.9245 15.08835755116312,6917.893,95.438,540.695,538.822,0.0
53157.0,STARLINK-4093,PAYLOAD,2024-08-20 03:57:13,15.08839698,0.0001337,53.2163,187.347,82.383,277.7314,6.0403e-05,6.74e-06,0.0,0 STARLINK-4093,1 53157U 22083AB  24233.16473411  .00000674  00000-0  60403-4 0  9991,2 53157  53.2163 187.3470 0001337  82.3830 277.7314 15.08839698115837,6917.881,95.438,540.671,538.821,0.0
53157.0,STARLINK-4093,PAYLOAD,2024-08-21 02:12:37,15.08836256,0.0001341,53.2165,183.1844,82.2939,277.8206,0.00010832,1.436e-05,0.0,0 STARLINK-4093,1 53157U 22083AB  24234.09209698  .00001436  00000-0  10832-3 0  9995,2 53157  53.2165 183.1844 0001341  82.2939 277.8206 15.08836256116606,6917.892,95.438,540.685,538.829,0.0
53157.0,STARLINK-4093,PAYLOAD,2024-08-21 06:58:46,15.08837367,0.000135,53.2165,182.2924,82.2259,277.8887,0.00011337,1.517e-05,0.0,0 STARLINK-4093,1 53157U 22083AB  24234.29081712  .00001517  00000-0  11337-3 0  9993,2 53157  53.2165 182.2924 0001350  82.2259 277.8887 15.08837367116003,6917.888,95.438,540.687,538.82,0.0
